{
    "links": {
        "self": "http://www.neowsapp.com/rest/v1/neo/3388886?api_key=iIulBulltgU6a56xZRHN4H3l9WmuAYTsLGpBGhQ2"
    },
    "id": "3388886",
    "neo_reference_id": "3388886",
    "name": "(2007 UR)",
    "designation": "2007 UR",
    "nasa_jpl_url": "http://ssd.jpl.nasa.gov/sbdb.cgi?sstr=3388886",
    "absolute_magnitude_h": 23.9,
    "estimated_diameter": {
        "kilometers": {
            "estimated_diameter_min": 0.04411182,
            "estimated_diameter_max": 0.0986370281
        },
        "meters": {
            "estimated_diameter_min": 44.1118199997,
            "estimated_diameter_max": 98.6370281305
        },
        "miles": {
            "estimated_diameter_min": 0.0274098057,
            "estimated_diameter_max": 0.0612901888
        },
        "feet": {
            "estimated_diameter_min": 144.7238235278,
            "estimated_diameter_max": 323.6123073718
        }
    },
    "is_potentially_hazardous_asteroid": false,
    "close_approach_data": [
        {
            "close_approach_date": "1917-12-14",
            "close_approach_date_full": "1917-Dec-14 07:05",
            "epoch_date_close_approach": -1642524900000,
            "relative_velocity": {
                "kilometers_per_second": "15.0298181441",
                "kilometers_per_hour": "54107.3453189144",
                "miles_per_hour": "33620.2002066333"
            },
            "miss_distance": {
                "astronomical": "0.4125691278",
                "lunar": "160.4893907142",
                "kilometers": "61719462.746637786",
                "miles": "38350695.8053660068"
            },
            "orbiting_body": "Earth"
        },
        {
            "close_approach_date": "1955-12-17",
            "close_approach_date_full": "1955-Dec-17 01:12",
            "epoch_date_close_approach": -443141280000,
            "relative_velocity": {
                "kilometers_per_second": "16.0830404409",
                "kilometers_per_hour": "57898.945587389",
                "miles_per_hour": "35976.1531623418"
            },
            "miss_distance": {
                "astronomical": "0.4485550434",
                "lunar": "174.4879118826",
                "kilometers": "67102879.070397558",
                "miles": "41695795.5946119804"
            },
            "orbiting_body": "Earth"
        },
        {
            "close_approach_date": "2007-11-15",
            "close_approach_date_full": "2007-Nov-15 00:15",
            "epoch_date_close_approach": 1195085700000,
            "relative_velocity": {
                "kilometers_per_second": "6.454454185",
                "kilometers_per_hour": "23236.0350660898",
                "miles_per_hour": "14437.9685664823"
            },
            "miss_distance": {
                "astronomical": "0.0980478323",
                "lunar": "38.1406067647",
                "kilometers": "14667746.870197201",
                "miles": "9114115.2779993338"
            },
            "orbiting_body": "Earth"
        },
        {
            "close_approach_date": "2036-06-18",
            "close_approach_date_full": "2036-Jun-18 04:44",
            "epoch_date_close_approach": 2097377040000,
            "relative_velocity": {
                "kilometers_per_second": "12.8946897004",
                "kilometers_per_hour": "46420.8829214429",
                "miles_per_hour": "28844.1313908265"
            },
            "miss_distance": {
                "astronomical": "0.0397101797",
                "lunar": "15.4472599033",
                "kilometers": "5940558.300437239",
                "miles": "3691291.7604183382"
            },
            "orbiting_body": "Mars"
        },
        {
            "close_approach_date": "2159-12-09",
            "close_approach_date_full": "2159-Dec-09 01:05",
            "epoch_date_close_approach": 5993831100000,
            "relative_velocity": {
                "kilometers_per_second": "10.8778845028",
                "kilometers_per_hour": "39160.384210035",
                "miles_per_hour": "24332.7398442854"
            },
            "miss_distance": {
                "astronomical": "0.2737622674",
                "lunar": "106.4935220186",
                "kilometers": "40954252.089410438",
                "miles": "25447792.2185545244"
            },
            "orbiting_body": "Earth"
        }
    ],
    "orbital_data": {
        "orbit_id": "14",
        "orbit_determination_date": "2017-04-06 09:05:37",
        "first_observation_date": "2007-10-16",
        "last_observation_date": "2008-01-03",
        "data_arc_in_days": 79,
        "observations_used": 49,
        "orbit_uncertainty": "6",
        "minimum_orbit_intersection": ".110863",
        "jupiter_tisserand_invariant": "3.011",
        "epoch_osculation": "2459000.5",
        "eccentricity": ".6104433285978867",
        "semi_major_axis": "2.816895802568793",
        "inclination": "3.197924124419217",
        "ascending_node_longitude": "30.36228740607406",
        "orbital_period": "1726.849944068136",
        "perihelion_distance": "1.097340552535283",
        "perihelion_argument": "23.78151649281718",
        "aphelion_distance": "4.536451052602303",
        "perihelion_time": "2459580.388759643977",
        "mean_anomaly": "239.1093840035502",
        "mean_motion": ".2084720801808102",
        "equinox": "J2000",
        "orbit_class": {
            "orbit_class_type": "AMO",
            "orbit_class_description": "Near-Earth asteroid orbits similar to that of 1221 Amor",
            "orbit_class_range": "1.017 AU < q (perihelion) < 1.3 AU"
        }
    },
    "is_sentry_object": false
}